ELECTRON KICK STAGE R/B 
1 67074U 25297C   25358.19123201  .00360695  37232-4  18597-2 0  9993
2 67074  97.4820 146.2013 0192239 227.9233 130.5537 15.59088152  1567
STARLINK-36230          
1 67075U 25298A   25358.83334491 -.01717952  00000+0 -95710-2 0  9996
2 67075  69.9973 215.6029 0003864 275.7798 166.2310 15.82310299  2923
STARLINK-36240          
1 67076U 25298B   25358.83334491 -.01719593  00000+0 -95813-2 0  9994
2 67076  69.9973 215.6005 0003816 273.6944 170.2522 15.82311731  2927
STARLINK-36243          
1 67077U 25298C   25358.83334491 -.01714999  00000+0 -95588-2 0  9999
2 67077  69.9969 215.5979 0003799 276.1480 170.0472 15.82296180  2927
STARLINK-36236          
1 67078U 25298D   25358.83334491 -.01715542  00000+0 -95591-2 0  9999
2 67078  69.9972 215.5958 0003900 275.0159 172.9774 15.82301534  2920
STARLINK-36159          
1 67079U 25298E   25358.83334491 -.01717248  00000+0 -95758-2 0  9990
2 67079  69.9972 215.5933 0003861 275.3446 174.9119 15.82289621  2929
STARLINK-36158          
1 67080U 25298F   25358.83334491 -.01723833  00000+0 -96187-2 0  9996
2 67080  69.9969 215.5906 0003910 275.3589 177.0371 15.82288150  2863
STARLINK-35864          
1 67081U 25298G   25358.83334491 -.01711436  00000+0 -95442-2 0  9996
2 67081  69.9971 215.5881 0003791 272.3363 182.0289 15.82277598  2928
STARLINK-36035          
1 67082U 25298H   25358.83334491 -.01714629  00000+0 -95676-2 0  9993
2 67082  69.9973 215.5858 0003743 276.2441 180.1956 15.82272305  2923
STARLINK-36170          
1 67083U 25298J   25358.83334491 -.01707211  00000+0 -95229-2 0  9997
2 67083  69.9969 215.5830 0003816 271.6581 186.8902 15.82263733  2923
STARLINK-36166          
1 67084U 25298K   25358.83334491 -.01715113  00000+0 -95750-2 0  9997
2 67084  69.9970 215.5805 0003765 276.1190 184.4388 15.82262520  2865
STARLINK-35794          
1 67085U 25298L   25358.83334491 -.01711208  00000+0 -95500-2 0  9992
2 67085  69.9972 215.5783 0003804 270.5263 192.0022 15.82261137  2926
