CCSDS_OMM_VERS = 2.0
CREATION_DATE  = 
ORIGINATOR     = 

OBJECT_NAME    = ELECTRON KICK STAGE R/B
OBJECT_ID      = 2025-297C
CENTER_NAME    = EARTH
REF_FRAME      = TEME
TIME_SYSTEM    = UTC
MEAN_ELEMENT_THEORY = SGP/SGP4

EPOCH          = 2025-12-24T04:35:22.445664
MEAN_MOTION    = 15.59088152
ECCENTRICITY   = .01922391
INCLINATION    = 97.4820
RA_OF_ASC_NODE = 146.2013
ARG_OF_PERICENTER = 227.9233
MEAN_ANOMALY   = 130.5537

EPHEMERIS_TYPE = 0
CLASSIFICATION_TYPE = U
NORAD_CAT_ID   = 67074
ELEMENT_SET_NO = 999
REV_AT_EPOCH   = 156
BSTAR          = .18597472E-2
MEAN_MOTION_DOT = .360695E-2
MEAN_MOTION_DDOT = .37231607E-4

CCSDS_OMM_VERS = 2.0
CREATION_DATE  = 
ORIGINATOR     = 

OBJECT_NAME    = STARLINK-36230
OBJECT_ID      = 2025-298A
CENTER_NAME    = EARTH
REF_FRAME      = TEME
TIME_SYSTEM    = UTC
MEAN_ELEMENT_THEORY = SGP/SGP4

EPOCH          = 2025-12-24T20:00:01.000224
MEAN_MOTION    = 15.82310299
ECCENTRICITY   = .0003864
INCLINATION    = 69.9973
RA_OF_ASC_NODE = 215.6029
ARG_OF_PERICENTER = 275.7798
MEAN_ANOMALY   = 166.2310

EPHEMERIS_TYPE = 0
CLASSIFICATION_TYPE = U
NORAD_CAT_ID   = 67075
ELEMENT_SET_NO = 999
REV_AT_EPOCH   = 292
BSTAR          = -.9571E-2
MEAN_MOTION_DOT = -.1717952E-1
MEAN_MOTION_DDOT = 0

CCSDS_OMM_VERS = 2.0
CREATION_DATE  = 
ORIGINATOR     = 

OBJECT_NAME    = STARLINK-36240
OBJECT_ID      = 2025-298B
CENTER_NAME    = EARTH
REF_FRAME      = TEME
TIME_SYSTEM    = UTC
MEAN_ELEMENT_THEORY = SGP/SGP4

EPOCH          = 2025-12-24T20:00:01.000224
MEAN_MOTION    = 15.82311731
ECCENTRICITY   = .0003816
INCLINATION    = 69.9973
RA_OF_ASC_NODE = 215.6005
ARG_OF_PERICENTER = 273.6944
MEAN_ANOMALY   = 170.2522

EPHEMERIS_TYPE = 0
CLASSIFICATION_TYPE = U
NORAD_CAT_ID   = 67076
ELEMENT_SET_NO = 999
REV_AT_EPOCH   = 292
BSTAR          = -.95813E-2
MEAN_MOTION_DOT = -.1719593E-1
MEAN_MOTION_DDOT = 0

CCSDS_OMM_VERS = 2.0
CREATION_DATE  = 
ORIGINATOR     = 

OBJECT_NAME    = STARLINK-36243
OBJECT_ID      = 2025-298C
CENTER_NAME    = EARTH
REF_FRAME      = TEME
TIME_SYSTEM    = UTC
MEAN_ELEMENT_THEORY = SGP/SGP4

EPOCH          = 2025-12-24T20:00:01.000224
MEAN_MOTION    = 15.82296180
ECCENTRICITY   = .0003799
INCLINATION    = 69.9969
RA_OF_ASC_NODE = 215.5979
ARG_OF_PERICENTER = 276.1480
MEAN_ANOMALY   = 170.0472

EPHEMERIS_TYPE = 0
CLASSIFICATION_TYPE = U
NORAD_CAT_ID   = 67077
ELEMENT_SET_NO = 999
REV_AT_EPOCH   = 292
BSTAR          = -.95588E-2
MEAN_MOTION_DOT = -.1714999E-1
MEAN_MOTION_DDOT = 0

CCSDS_OMM_VERS = 2.0
CREATION_DATE  = 
ORIGINATOR     = 

OBJECT_NAME    = STARLINK-36236
OBJECT_ID      = 2025-298D
CENTER_NAME    = EARTH
REF_FRAME      = TEME
TIME_SYSTEM    = UTC
MEAN_ELEMENT_THEORY = SGP/SGP4

EPOCH          = 2025-12-24T20:00:01.000224
MEAN_MOTION    = 15.82301534
ECCENTRICITY   = .00039
INCLINATION    = 69.9972
RA_OF_ASC_NODE = 215.5958
ARG_OF_PERICENTER = 275.0159
MEAN_ANOMALY   = 172.9774

EPHEMERIS_TYPE = 0
CLASSIFICATION_TYPE = U
NORAD_CAT_ID   = 67078
ELEMENT_SET_NO = 999
REV_AT_EPOCH   = 292
BSTAR          = -.95591E-2
MEAN_MOTION_DOT = -.1715542E-1
MEAN_MOTION_DDOT = 0

CCSDS_OMM_VERS = 2.0
CREATION_DATE  = 
ORIGINATOR     = 

OBJECT_NAME    = STARLINK-36159
OBJECT_ID      = 2025-298E
CENTER_NAME    = EARTH
REF_FRAME      = TEME
TIME_SYSTEM    = UTC
MEAN_ELEMENT_THEORY = SGP/SGP4

EPOCH          = 2025-12-24T20:00:01.000224
MEAN_MOTION    = 15.82289621
ECCENTRICITY   = .0003861
INCLINATION    = 69.9972
RA_OF_ASC_NODE = 215.5933
ARG_OF_PERICENTER = 275.3446
MEAN_ANOMALY   = 174.9119

EPHEMERIS_TYPE = 0
CLASSIFICATION_TYPE = U
NORAD_CAT_ID   = 67079
ELEMENT_SET_NO = 999
REV_AT_EPOCH   = 292
BSTAR          = -.95758E-2
MEAN_MOTION_DOT = -.1717248E-1
MEAN_MOTION_DDOT = 0

CCSDS_OMM_VERS = 2.0
CREATION_DATE  = 
ORIGINATOR     = 

OBJECT_NAME    = STARLINK-36158
OBJECT_ID      = 2025-298F
CENTER_NAME    = EARTH
REF_FRAME      = TEME
TIME_SYSTEM    = UTC
MEAN_ELEMENT_THEORY = SGP/SGP4

EPOCH          = 2025-12-24T20:00:01.000224
MEAN_MOTION    = 15.82288150
ECCENTRICITY   = .000391
INCLINATION    = 69.9969
RA_OF_ASC_NODE = 215.5906
ARG_OF_PERICENTER = 275.3589
MEAN_ANOMALY   = 177.0371

EPHEMERIS_TYPE = 0
CLASSIFICATION_TYPE = U
NORAD_CAT_ID   = 67080
ELEMENT_SET_NO = 999
REV_AT_EPOCH   = 286
BSTAR          = -.96187E-2
MEAN_MOTION_DOT = -.1723833E-1
MEAN_MOTION_DDOT = 0

CCSDS_OMM_VERS = 2.0
CREATION_DATE  = 
ORIGINATOR     = 

OBJECT_NAME    = STARLINK-35864
OBJECT_ID      = 2025-298G
CENTER_NAME    = EARTH
REF_FRAME      = TEME
TIME_SYSTEM    = UTC
MEAN_ELEMENT_THEORY = SGP/SGP4

EPOCH          = 2025-12-24T20:00:01.000224
MEAN_MOTION    = 15.82277598
ECCENTRICITY   = .0003791
INCLINATION    = 69.9971
RA_OF_ASC_NODE = 215.5881
ARG_OF_PERICENTER = 272.3363
MEAN_ANOMALY   = 182.0289

EPHEMERIS_TYPE = 0
CLASSIFICATION_TYPE = U
NORAD_CAT_ID   = 67081
ELEMENT_SET_NO = 999
REV_AT_EPOCH   = 292
BSTAR          = -.95442E-2
MEAN_MOTION_DOT = -.1711436E-1
MEAN_MOTION_DDOT = 0

CCSDS_OMM_VERS = 2.0
CREATION_DATE  = 
ORIGINATOR     = 

OBJECT_NAME    = STARLINK-36035
OBJECT_ID      = 2025-298H
CENTER_NAME    = EARTH
REF_FRAME      = TEME
TIME_SYSTEM    = UTC
MEAN_ELEMENT_THEORY = SGP/SGP4

EPOCH          = 2025-12-24T20:00:01.000224
MEAN_MOTION    = 15.82272305
ECCENTRICITY   = .0003743
INCLINATION    = 69.9973
RA_OF_ASC_NODE = 215.5858
ARG_OF_PERICENTER = 276.2441
MEAN_ANOMALY   = 180.1956

EPHEMERIS_TYPE = 0
CLASSIFICATION_TYPE = U
NORAD_CAT_ID   = 67082
ELEMENT_SET_NO = 999
REV_AT_EPOCH   = 292
BSTAR          = -.95676E-2
MEAN_MOTION_DOT = -.1714629E-1
MEAN_MOTION_DDOT = 0

CCSDS_OMM_VERS = 2.0
CREATION_DATE  = 
ORIGINATOR     = 

OBJECT_NAME    = STARLINK-36170
OBJECT_ID      = 2025-298J
CENTER_NAME    = EARTH
REF_FRAME      = TEME
TIME_SYSTEM    = UTC
MEAN_ELEMENT_THEORY = SGP/SGP4

EPOCH          = 2025-12-24T20:00:01.000224
MEAN_MOTION    = 15.82263733
ECCENTRICITY   = .0003816
INCLINATION    = 69.9969
RA_OF_ASC_NODE = 215.5830
ARG_OF_PERICENTER = 271.6581
MEAN_ANOMALY   = 186.8902

EPHEMERIS_TYPE = 0
CLASSIFICATION_TYPE = U
NORAD_CAT_ID   = 67083
ELEMENT_SET_NO = 999
REV_AT_EPOCH   = 292
BSTAR          = -.95229E-2
MEAN_MOTION_DOT = -.1707211E-1
MEAN_MOTION_DDOT = 0

CCSDS_OMM_VERS = 2.0
CREATION_DATE  = 
ORIGINATOR     = 

OBJECT_NAME    = STARLINK-36166
OBJECT_ID      = 2025-298K
CENTER_NAME    = EARTH
REF_FRAME      = TEME
TIME_SYSTEM    = UTC
MEAN_ELEMENT_THEORY = SGP/SGP4

EPOCH          = 2025-12-24T20:00:01.000224
MEAN_MOTION    = 15.82262520
ECCENTRICITY   = .0003765
INCLINATION    = 69.9970
RA_OF_ASC_NODE = 215.5805
ARG_OF_PERICENTER = 276.1190
MEAN_ANOMALY   = 184.4388

EPHEMERIS_TYPE = 0
CLASSIFICATION_TYPE = U
NORAD_CAT_ID   = 67084
ELEMENT_SET_NO = 999
REV_AT_EPOCH   = 286
BSTAR          = -.9575E-2
MEAN_MOTION_DOT = -.1715113E-1
MEAN_MOTION_DDOT = 0

CCSDS_OMM_VERS = 2.0
CREATION_DATE  = 
ORIGINATOR     = 

OBJECT_NAME    = STARLINK-35794
OBJECT_ID      = 2025-298L
CENTER_NAME    = EARTH
REF_FRAME      = TEME
TIME_SYSTEM    = UTC
MEAN_ELEMENT_THEORY = SGP/SGP4

EPOCH          = 2025-12-24T20:00:01.000224
MEAN_MOTION    = 15.82261137
ECCENTRICITY   = .0003804
INCLINATION    = 69.9972
RA_OF_ASC_NODE = 215.5783
ARG_OF_PERICENTER = 270.5263
MEAN_ANOMALY   = 192.0022

EPHEMERIS_TYPE = 0
CLASSIFICATION_TYPE = U
NORAD_CAT_ID   = 67085
ELEMENT_SET_NO = 999
REV_AT_EPOCH   = 292
BSTAR          = -.955E-2
MEAN_MOTION_DOT = -.1711208E-1
MEAN_MOTION_DDOT = 0

